start=new Date('2022-03-26T00:00:00.000Z').valueOf();
sats=[{"OBJECT_ID":"2020-074BF","EPHEMERIS_TYPE":"0","ARG_OF_PERICENTER":"52.8335","REF_FRAME":"TEME","MEAN_MOTION":"15.06403412","ELEMENT_SET_NO":"999","RCS_SIZE":"LARGE","MEAN_MOTION_DOT":"0.00002077","OBJECT_NAME":"STARLINK-1934","CLASSIFICATION_TYPE":"U","OBJECT_TYPE":"PAYLOAD","PERIAPSIS":"545.852","REV_AT_EPOCH":"7897","NORAD_CAT_ID":"46792","INCLINATION":"53.0543","BSTAR":"0.00015832000000","MEAN_ANOMALY":"307.2832","TIME_SYSTEM":"UTC","TLE_LINE1":"1 46792U 20074BF  22084.38318564  .00002077  00000-0  15832-3 0  9993","ECCENTRICITY":"0.00019510","DECAY_DATE":null,"PERIOD":"95.592","TLE_LINE2":"2 46792  53.0543 319.8432 0001951  52.8335 307.2832 15.06403412 78974","FILE":"3373822","CENTER_NAME":"EARTH","GP_ID":"199661533","LAUNCH_DATE":"2020-10-24","COUNTRY_CODE":"US","EPOCH":"2022-03-25T09:11:47.239296","APOAPSIS":"548.554","SITE":"AFETR","MEAN_MOTION_DDOT":"0.0000000000000","MEAN_ELEMENT_THEORY":"SGP4","SEMIMAJOR_AXIS":"6925.338","RA_OF_ASC_NODE":"319.8432"},{"CENTER_NAME":"EARTH","GP_ID":"199671989","EPOCH":"2022-03-25T19:26:09.785472","LAUNCH_DATE":"2020-10-24","COUNTRY_CODE":"US","FILE":"3374117","DECAY_DATE":null,"ECCENTRICITY":"0.00018310","PERIOD":"95.591","TLE_LINE2":"2 46793  53.0548 327.9409 0001831  65.8124 294.3056 15.06416885 78579","TIME_SYSTEM":"UTC","MEAN_ANOMALY":"294.3056","TLE_LINE1":"1 46793U 20074BG  22084.80983548  .00005050  00000-0  35751-3 0  9997","RA_OF_ASC_NODE":"327.9409","MEAN_ELEMENT_THEORY":"SGP4","SEMIMAJOR_AXIS":"6925.297","MEAN_MOTION_DDOT":"0.0000000000000","APOAPSIS":"548.430","SITE":"AFETR","RCS_SIZE":"LARGE","ELEMENT_SET_NO":"999","MEAN_MOTION":"15.06416885","OBJECT_ID":"2020-074BG","EPHEMERIS_TYPE":"0","ARG_OF_PERICENTER":"65.8124","REF_FRAME":"TEME","BSTAR":"0.00035751000000","PERIAPSIS":"545.894","REV_AT_EPOCH":"7857","NORAD_CAT_ID":"46793","INCLINATION":"53.0548","OBJECT_TYPE":"PAYLOAD","OBJECT_NAME":"STARLINK-1941","MEAN_MOTION_DOT":"0.00005050","CLASSIFICATION_TYPE":"U"},{"ELEMENT_SET_NO":"999","RCS_SIZE":"LARGE","REF_FRAME":"TEME","ARG_OF_PERICENTER":"61.1111","OBJECT_ID":"2020-074BH","EPHEMERIS_TYPE":"0","MEAN_MOTION":"15.06400690","INCLINATION":"53.0560","NORAD_CAT_ID":"46794","PERIAPSIS":"546.056","REV_AT_EPOCH":"7884","BSTAR":"0.00006715200000","MEAN_MOTION_DOT":"0.00000719","OBJECT_NAME":"STARLINK-1942","CLASSIFICATION_TYPE":"U","OBJECT_TYPE":"PAYLOAD","FILE":"3373822","EPOCH":"2022-03-25T10:03:31.828032","LAUNCH_DATE":"2020-10-24","COUNTRY_CODE":"US","GP_ID":"199662534","CENTER_NAME":"EARTH","TLE_LINE1":"1 46794U 20074BH  22084.41911838  .00000719  00000-0  67152-4 0  9996","MEAN_ANOMALY":"299.0045","TIME_SYSTEM":"UTC","TLE_LINE2":"2 46794  53.0560 329.6971 0001668  61.1111 299.0045 15.06400690 78847","PERIOD":"95.592","DECAY_DATE":null,"ECCENTRICITY":"0.00016680","MEAN_ELEMENT_THEORY":"SGP4","SEMIMAJOR_AXIS":"6925.346","RA_OF_ASC_NODE":"329.6971","SITE":"AFETR","APOAPSIS":"548.367","MEAN_MOTION_DDOT":"0.0000000000000"},{"BSTAR":"0.00001620800000","NORAD_CAT_ID":"46796","PERIAPSIS":"545.877","REV_AT_EPOCH":"7872","INCLINATION":"53.0556","OBJECT_TYPE":"PAYLOAD","MEAN_MOTION_DOT":"-0.00000040","CLASSIFICATION_TYPE":"U","OBJECT_NAME":"STARLINK-1944","RCS_SIZE":"LARGE","ELEMENT_SET_NO":"999","MEAN_MOTION":"15.06397152","OBJECT_ID":"2020-074BK","EPHEMERIS_TYPE":"0","ARG_OF_PERICENTER":"52.6461","REF_FRAME":"TEME","RA_OF_ASC_NODE":"317.7260","SEMIMAJOR_AXIS":"6925.357","MEAN_ELEMENT_THEORY":"SGP4","MEAN_MOTION_DDOT":"0.0000000000000","APOAPSIS":"548.567","SITE":"AFETR","CENTER_NAME":"EARTH","LAUNCH_DATE":"2020-10-24","EPOCH":"2022-03-25T20:36:28.906560","COUNTRY_CODE":"US","GP_ID":"199671526","FILE":"3374091","DECAY_DATE":null,"ECCENTRICITY":"0.00019420","TLE_LINE2":"2 46796  53.0556 317.7260 0001942  52.6461 307.4705 15.06397152 78723","PERIOD":"95.592","TIME_SYSTEM":"UTC","MEAN_ANOMALY":"307.4705","TLE_LINE1":"1 46796U 20074BK  22084.85866790 -.00000040  00000-0  16208-4 0  9996"},{"MEAN_MOTION":"15.79222854","ARG_OF_PERICENTER":"248.4905","REF_FRAME":"TEME","EPHEMERIS_TYPE":"0","OBJECT_ID":"2020-074BL","RCS_SIZE":"LARGE","ELEMENT_SET_NO":"999","OBJECT_TYPE":"PAYLOAD","MEAN_MOTION_DOT":"0.00135645","OBJECT_NAME":"STARLINK-1947","CLASSIFICATION_TYPE":"U","BSTAR":"0.00073141000000","INCLINATION":"53.0483","NORAD_CAT_ID":"46797","PERIAPSIS":"326.657","REV_AT_EPOCH":"8000","TLE_LINE2":"2 46797  53.0483 230.4192 0008920 248.4905 111.5165 15.79222854 80003","PERIOD":"91.184","DECAY_DATE":null,"ECCENTRICITY":"0.00089200","TLE_LINE1":"1 46797U 20074BL  22084.78903349  .00135645  00000-0  73141-3 0  9998","MEAN_ANOMALY":"111.5165","TIME_SYSTEM":"UTC","LAUNCH_DATE":"2020-10-24","COUNTRY_CODE":"US","EPOCH":"2022-03-25T18:56:12.493536","GP_ID":"199671539","CENTER_NAME":"EARTH","FILE":"3374092","MEAN_MOTION_DDOT":"0.0000000000000","APOAPSIS":"338.629","SITE":"AFETR","RA_OF_ASC_NODE":"230.4192","SEMIMAJOR_AXIS":"6710.778","MEAN_ELEMENT_THEORY":"SGP4"},{"CENTER_NAME":"EARTH","GP_ID":"199672053","LAUNCH_DATE":"2020-10-24","COUNTRY_CODE":"US","EPOCH":"2022-03-25T19:46:40.857600","FILE":"3374093","ECCENTRICITY":"0.00017070","DECAY_DATE":null,"PERIOD":"95.592","TLE_LINE2":"2 46798  53.0552 342.8792 0001707  65.4754 294.6413 15.06405278 78436","MEAN_ANOMALY":"294.6413","TIME_SYSTEM":"UTC","TLE_LINE1":"1 46798U 20074BM  22084.82408400  .00001189  00000-0  98704-4 0  9990","RA_OF_ASC_NODE":"342.8792","MEAN_ELEMENT_THEORY":"SGP4","SEMIMAJOR_AXIS":"6925.332","MEAN_MOTION_DDOT":"0.0000000000000","APOAPSIS":"548.380","SITE":"AFETR","RCS_SIZE":"LARGE","ELEMENT_SET_NO":"999","MEAN_MOTION":"15.06405278","EPHEMERIS_TYPE":"0","OBJECT_ID":"2020-074BM","ARG_OF_PERICENTER":"65.4754","REF_FRAME":"TEME","BSTAR":"0.00009870400000","REV_AT_EPOCH":"7843","PERIAPSIS":"546.015","NORAD_CAT_ID":"46798","INCLINATION":"53.0552","OBJECT_TYPE":"PAYLOAD","MEAN_MOTION_DOT":"0.00001189","OBJECT_NAME":"STARLINK-1948","CLASSIFICATION_TYPE":"U"},{"MEAN_MOTION_DDOT":"0.0000000000000","SITE":"AFETR","APOAPSIS":"548.293","RA_OF_ASC_NODE":"307.7696","SEMIMAJOR_AXIS":"6925.319","MEAN_ELEMENT_THEORY":"SGP4","TLE_LINE2":"2 47122  53.0538 307.7696 0001602  85.4905 274.6267 15.06409787 74361","PERIOD":"95.592","DECAY_DATE":null,"ECCENTRICITY":"0.00016020","TLE_LINE1":"1 47122U 20088A   22084.84485336  .00002620  00000-0  19464-3 0  9998","MEAN_ANOMALY":"274.6267","TIME_SYSTEM":"UTC","LAUNCH_DATE":"2020-11-25","EPOCH":"2022-03-25T20:16:35.330304","COUNTRY_CODE":"US","GP_ID":"199668574","CENTER_NAME":"EARTH","FILE":"3373974","OBJECT_TYPE":"PAYLOAD","CLASSIFICATION_TYPE":"U","MEAN_MOTION_DOT":"0.00002620","OBJECT_NAME":"STARLINK-1777","BSTAR":"0.00019464000000","INCLINATION":"53.0538","NORAD_CAT_ID":"47122","PERIAPSIS":"546.074","REV_AT_EPOCH":"7436","MEAN_MOTION":"15.06409787","REF_FRAME":"TEME","ARG_OF_PERICENTER":"85.4905","OBJECT_ID":"2020-088A","EPHEMERIS_TYPE":"0","RCS_SIZE":"LARGE","ELEMENT_SET_NO":"999"},{"MEAN_MOTION_DDOT":"0.0000000000000","SITE":"AFETR","APOAPSIS":"548.274","RA_OF_ASC_NODE":"314.9343","SEMIMAJOR_AXIS":"6925.334","MEAN_ELEMENT_THEORY":"SGP4","PERIOD":"95.592","TLE_LINE2":"2 47124  53.0545 314.9343 0001553  73.9368 286.1792 15.06404760 73928","DECAY_DATE":null,"ECCENTRICITY":"0.00015530","TLE_LINE1":"1 47124U 20088C   22084.36611179  .00002838  00000-0  20929-3 0  9992","MEAN_ANOMALY":"286.1792","TIME_SYSTEM":"UTC","GP_ID":"199663323","COUNTRY_CODE":"US","LAUNCH_DATE":"2020-11-25","EPOCH":"2022-03-25T08:47:12.058656","CENTER_NAME":"EARTH","FILE":"3373822","OBJECT_TYPE":"PAYLOAD","MEAN_MOTION_DOT":"0.00002838","CLASSIFICATION_TYPE":"U","OBJECT_NAME":"STARLINK-1785","BSTAR":"0.00020929000000","INCLINATION":"53.0545","REV_AT_EPOCH":"7392","PERIAPSIS":"546.123","NORAD_CAT_ID":"47124","MEAN_MOTION":"15.06404760","REF_FRAME":"TEME","ARG_OF_PERICENTER":"73.9368","OBJECT_ID":"2020-088C","EPHEMERIS_TYPE":"0","RCS_SIZE":"LARGE","ELEMENT_SET_NO":"999"},{"LAUNCH_DATE":"2020-11-25","EPOCH":"2022-03-25T20:53:44.051136","COUNTRY_CODE":"US","GP_ID":"199673406","CENTER_NAME":"EARTH","FILE":"3374150","TLE_LINE2":"2 47126  53.0546 307.6576 0001647  64.6370 295.4790 15.06402566 74375","PERIOD":"95.592","DECAY_DATE":null,"ECCENTRICITY":"0.00016470","TLE_LINE1":"1 47126U 20088E   22084.87064874  .00001454  00000-0  11646-3 0  9993","MEAN_ANOMALY":"295.4790","TIME_SYSTEM":"UTC","RA_OF_ASC_NODE":"307.6576","SEMIMAJOR_AXIS":"6925.341","MEAN_ELEMENT_THEORY":"SGP4","MEAN_MOTION_DDOT":"0.0000000000000","SITE":"AFETR","APOAPSIS":"548.346","RCS_SIZE":"LARGE","ELEMENT_SET_NO":"999","MEAN_MOTION":"15.06402566","REF_FRAME":"TEME","ARG_OF_PERICENTER":"64.6370","EPHEMERIS_TYPE":"0","OBJECT_ID":"2020-088E","BSTAR":"0.00011646000000","INCLINATION":"53.0546","NORAD_CAT_ID":"47126","PERIAPSIS":"546.065","REV_AT_EPOCH":"7437","OBJECT_TYPE":"PAYLOAD","CLASSIFICATION_TYPE":"U","MEAN_MOTION_DOT":"0.00001454","OBJECT_NAME":"STARLINK-1812"},{"DECAY_DATE":null,"ECCENTRICITY":"0.00014880","TLE_LINE2":"2 47128  53.0536 290.2422 0001488  64.5715 295.5428 15.06404840 74262","PERIOD":"95.592","MEAN_ANOMALY":"295.5428","TIME_SYSTEM":"UTC","TLE_LINE1":"1 47128U 20088G   22084.29748027  .00001733  00000-0  13521-3 0  9994","CENTER_NAME":"EARTH","LAUNCH_DATE":"2020-11-25","COUNTRY_CODE":"US","EPOCH":"2022-03-25T07:08:22.295328","GP_ID":"199662322","FILE":"3373822","MEAN_MOTION_DDOT":"0.0000000000000","SITE":"AFETR","APOAPSIS":"548.229","RA_OF_ASC_NODE":"290.2422","SEMIMAJOR_AXIS":"6925.334","MEAN_ELEMENT_THEORY":"SGP4","MEAN_MOTION":"15.06404840","EPHEMERIS_TYPE":"0","OBJECT_ID":"2020-088G","ARG_OF_PERICENTER":"64.5715","REF_FRAME":"TEME","RCS_SIZE":"LARGE","ELEMENT_SET_NO":"999","OBJECT_TYPE":"PAYLOAD","OBJECT_NAME":"STARLINK-1837","MEAN_MOTION_DOT":"0.00001733","CLASSIFICATION_TYPE":"U","BSTAR":"0.00013521000000","NORAD_CAT_ID":"47128","PERIAPSIS":"546.168","REV_AT_EPOCH":"7426","INCLINATION":"53.0536"}];
